HORYU-4                 
1 41340U 16012D   19361.18448118  .00000385  00000-0  22406-4 0  9991
2 41340  31.0063 355.1274 0013948 228.8775 131.0657 15.01383737211812
E-ST@R-II               
1 41459U 16025D   19361.20162958  .00001019  00000-0  55264-4 0  9997
2 41459  98.1012  97.3550 0167634  74.9301 287.0404 15.05945855201360
AAUSAT 4                
1 41460U 16025E   19361.06024321  .00001289  00000-0  67083-4 0  9995
2 41460  98.0988  98.9658 0157186  66.0992 295.6616 15.08034055201508
DIWATA-1                
1 41463U 98067HT  19361.12182750  .00049093  12162-4  13994-3 0  9994
2 41463  51.6258 325.4993 0002483  87.5472   1.6516 15.93863536210160
BEESAT-4                
1 41619U 16040W   19361.12730524  .00001074  00000-0  47757-4 0  9992
2 41619  97.3447  59.5705 0012790  73.4064 286.8577 15.23566508183007
CANX-7                  
1 41788U 16059F   19361.16954628  .00005342  00000-0  77698-3 0  9994
2 41788  98.2523  80.0108 0031624 134.6224 225.7584 14.76011540174233
RAVAN                   
1 41849U 16067B   19361.06001544 -.00000074  00000-0 -10443-5 0  9996
2 41849  97.9279 103.1188 0009978  99.1724 261.0627 14.98413867170652
CELTEE 1                
1 41850U 16067C   19361.03350348  .00000743  00000-0  69630-4 0  9996
2 41850  97.9218 101.3065 0010469 105.1218 255.1162 14.97098029170559
OPTICUBE 04             
1 41851U 16067D   19361.06918885 -.00000343  00000-0 -24614-4 0  9997
2 41851  97.9207 101.0505 0010019 105.8884 254.3442 14.96865562170545
AEROCUBE 8D             
1 41852U 16067E   19361.21511306  .00000164  00000-0  19574-4 0  9990
2 41852  97.9212 101.0257 0010862 107.0724 253.1687 14.96810759170545
AEROCUBE 8C             
1 41853U 16067F   19361.17575243  .00000561  00000-0  54288-4 0  9998
2 41853  97.9220 100.9062 0011631 106.9858 253.2638 14.96781787170532
PROMETHEUS 2-1          
1 41854U 16067G   19361.17934100  .00000562  00000-0  53986-4 0  9995
2 41854  97.9231 101.1369 0011920 106.2127 254.0406 14.97051312170549
PROMETHEUS 2-3          
1 41855U 16067H   19361.04721093  .00000535  00000-0  51661-4 0  9995
2 41855  97.9233 101.0270 0012072 106.9304 253.3241 14.97059934170520
INS-1B                  
1 41954U 17008G   19360.15269220  .00001047  00000-0  45652-4 0  9993
2 41954  97.3784  62.4949 0008932 185.1901 174.9246 15.24359982158818
BGUSAT                  
1 41999U 17008BD  19360.70386343  .00001687  00000-0  66797-4 0  9992
2 41999  97.3877  66.2716 0007712 193.1158 166.9881 15.26799469158436
DIDO-2                  
1 42000U 17008BE  19360.15458959  .00000721  00000-0  32505-4 0  9996
2 42000  97.3795  63.0438 0007746 203.7940 156.2941 15.24192503158218
PEASSS                  
1 42015U 17008BV  19361.17474457  .00000905  00000-0  38858-4 0  9997
2 42015  97.3809  65.3200 0005640 201.1623 158.9382 15.25236788158935
AL-FARABI 1             
1 42016U 17008BW  19361.15411556  .00001198  00000-0  49430-4 0  9990
2 42016  97.3830  66.0794 0005538 199.8833 160.2190 15.25971167159096
NAYIF-1 (EO-88)         
1 42017U 17008BX  19360.15364377  .00001217  00000-0  50126-4 0  9994
2 42017  97.3829  65.1029 0005448 203.8404 156.2582 15.26005647158963
NSIGHT                  
1 42726U 98067MF  19360.86056866  .00047426  00000-0  22458-3 0  9992
2 42726  51.6325  44.4699 0001094 208.5301 151.5642 15.82494398147968
UCLSAT                  
1 42765U 17036A   19361.13524118  .00000964  00000-0  43735-4 0  9991
2 42765  97.3270  54.8177 0009723 277.4595  82.5537 15.23129897139602
LITUANICASAT-2          
1 42768U 17036D   19361.15941561  .00001619  00000-0  70796-4 0  9996
2 42768  97.3314  54.5890 0013273 265.7137  94.2584 15.23421192139458
AALTO-1                 
1 42775U 17036L   19360.65544519  .00000582  00000-0  28813-4 0  9991
2 42775  97.3250  52.6351 0012240 270.0424  89.9410 15.21588532139243
URSA MAIOR              
1 42776U 17036M   19361.12436093  .00000660  00000-0  32110-4 0  9994
2 42776  97.3260  53.3059 0012067 268.0152  91.9702 15.21745383139325
COMPASS 2               
1 42777U 17036N   19360.71249807  .00001307  00000-0  57799-4 0  9993
2 42777  97.3310  54.6136 0010753 268.7937  91.2068 15.23399263139344
DIAMOND RED             
1 42783U 17036U   19360.13515670  .00000765  00000-0  35956-4 0  9998
2 42783  97.3271  53.2797 0010441 283.1601  76.8471 15.22512580139220
PEGASUS                 
1 42784U 17036V   19360.66672192  .00000883  00000-0  40633-4 0  9999
2 42784  97.3275  54.1162 0010294 280.1311  79.8764 15.22849044139329
DIAMOND GREEN           
1 42785U 17036W   19360.13399806  .00000807  00000-0  37758-4 0  9990
2 42785  97.3274  53.3083 0010324 283.8757  76.1330 15.22513553139210
DIAMOND BLUE            
1 42786U 17036X   19361.11901274  .00000751  00000-0  35352-4 0  9994
2 42786  97.3271  54.2655 0010165 280.1844  79.8246 15.22514137139364
NUDTSAT                 
1 42787U 17036Y   19360.20619020  .00001360  00000-0  59006-4 0  9998
2 42787  97.3318  54.6899 0010653 285.7589  74.2473 15.23984467139156
SUCHAI                  
1 42788U 17036Z   19360.15844134  .00001081  00000-0  48400-4 0  9995
2 42788  97.3282  54.0585 0009863 280.8307  79.1820 15.23328497139344
SKCUBE                  
1 42789U 17036AA  19359.85974326  .00000986  00000-0  44604-4 0  9993
2 42789  97.3279  53.6680 0009737 282.3288  77.6858 15.23199828139211
VZLUSAT-1               
1 42790U 17036AB  19359.86560194  .00001343  00000-0  58359-4 0  9990
2 42790  97.3298  54.3539 0009280 280.4225  79.5967 15.23970931139256
ROBUSTA-1B              
1 42792U 17036AD  19361.14835046  .00000987  00000-0  44398-4 0  9998
2 42792  97.3278  55.1251 0009309 277.6050  82.4130 15.23381646139436
CICERO 6                
1 42793U 17036AE  19360.14838238  .00000679  00000-0  31924-4 0  9993
2 42793  97.3259  53.7600 0008614 284.5923  75.4358 15.22855033139330
D-SAT                   
1 42794U 17036AF  19360.38428438  .00000381  00000-0  38577-4 0  9998
2 42794  97.5162  36.4463 0125323 225.3849 133.7095 14.91191636136754
CORVUS BC2              
1 42846U 17042X   19360.68199205  .00000024  00000-0  76466-5 0  9997
2 42846  97.5446 246.8125 0010680 131.8090 228.4043 14.92041304133497
CORVUS BC1              
1 42847U 17042Y   19360.42120426  .00000126  00000-0  17601-4 0  9997
2 42847  97.5447 246.7012 0010324 131.7880 228.4223 14.92141987133458
MIRATA                  
1 43015U 17073C   19359.77717117  .00000744  00000-0  63920-4 0  9995
2 43015  97.7222 273.6209 0252893 258.2206  99.0538 14.79332899113393
MAKERSAT 0              
1 43016U 17073D   19360.70748030  .00000499  00000-0  44823-4 0  9997
2 43016  97.7258 274.7172 0255341 255.8291 101.4432 14.78991001113512
ASTERIA                 
1 43020U 98067NH  19360.65426778  .00049739  00000-0  24466-3 0  9990
2 43020  51.6408  57.7240 0001214  61.2513 298.8611 15.81655479119957
DELLINGR (RBLE)         
1 43021U 98067NJ  19361.13736372  .00009226  00000-0  92097-4 0  9992
2 43021  51.6381  82.6477 0001963 106.1563 253.9649 15.66450303119665
AEROCUBE 7B (OCSD B)    
1 43042U 17071F   19360.85566267  .00002349  00000-0  63062-4 0  9992
2 43042  51.6362 197.5925 0005236 128.1777 231.9681 15.42341211115578
AEROCUBE 7C (OCSD C)    
1 43043U 17071G   19361.18034930  .00002427  00000-0  64863-4 0  9994
2 43043  51.6363 196.0254 0005417 132.9919 227.1521 15.42321962115594
CHEFSAT                 
1 43044U 17071H   19360.99047675  .00005819  00000-0  12634-3 0  9999
2 43044  51.6367 187.4502 0005311 134.7735 225.3685 15.45890262115697
ASGARDIA 1              
1 43049U 17071N   19360.72873434  .00002124  00000-0  57743-4 0  9992
2 43049  51.6374 197.5611 0002927 141.2492 218.8704 15.42429500115527
ISARA                   
1 43050U 17071P   19360.81462222  .00004777  00000-0  10768-3 0  9994
2 43050  51.6352 189.9493 0002937 140.7243 219.3957 15.45217768115639
PROPCUBE 2 (FAUNA)      
1 43052U 17071R   19360.63098883  .00002562  00000-0  66927-4 0  9993
2 43052  51.6370 196.9276 0002926 137.5712 222.5500 15.42785681115520
CORVUS BC3              
1 43118U 18004H   19360.14637852  .00000627  00000-0  29612-4 0  9994
2 43118  97.4663  66.6669 0009048 310.0618  49.9824 15.23102124108469
MICROMAS-2A             
1 43131U 18004W   19360.76436002  .00001482  00000-0  62861-4 0  9994
2 43131  97.4698  68.4545 0007918 308.1782  51.8741 15.24683449108622
SPACEBEE-4              
1 43139U 18004AE  19361.19319569  .00001946  00000-0  79131-4 0  9991
2 43139  97.4721  69.6867 0007276 308.2972  51.7611 15.25741002108723
SPACEBEE-3              
1 43140U 18004AF  19361.16221058  .00002562  00000-0  10117-3 0  9998
2 43140  97.4736  70.0998 0006958 306.8818  53.1782 15.26439915108757
SPACEBEE-2              
1 43141U 18004AG  19361.17254856  .00002768  00000-0  10830-3 0  9992
2 43141  97.4746  70.2692 0006910 306.1374  53.9224 15.26676593108765
SPACEBEE-1              
1 43142U 18004AH  19360.65144788  .00002969  00000-0  11502-3 0  9997
2 43142  97.4751  69.9180 0006906 308.2266  51.8351 15.26947210108683
CICERO 7                
1 43143U 18004AJ  19360.70778382  .00001385  00000-0  58814-4 0  9996
2 43143  97.4681  68.6060 0006296 321.6298  38.4491 15.24780125108634
GOMX-4B                 
1 43196U 18015E   19360.83515970  .00000269  00000-0  14000-4 0  9991
2 43196  97.4158 126.0052 0019120 359.8945   0.2271 15.24098976105459
GOMX-4A                 
1 43197U 18015F   19361.15415773  .00000552  00000-0  25501-4 0  9991
2 43197  97.4150 126.3653 0019086 359.8762 125.1611 15.24245606105516
1KUNS-PF                
1 43466U 98067NP  19360.67722433  .00033605  00000-0  21886-3 0  9991
2 43466  51.6348  79.4527 0000717 331.8652  28.2309 15.75582905 92922
UBAKUSAT                
1 43467U 98067NQ  19360.98558711  .00014695  00000-0  13595-3 0  9998
2 43467  51.6363  89.0775 0001677  71.5986 288.5193 15.67789539 92831
